OBJECT_NAME,OBJECT_ID,EPOCH,MEAN_MOTION,ECCENTRICITY,INCLINATION,RA_OF_ASC_NODE,ARG_OF_PERICENTER,MEAN_ANOMALY,EPHEMERIS_TYPE,CLASSIFICATION_TYPE,NORAD_CAT_ID,ELEMENT_SET_NO,REV_AT_EPOCH,BSTAR,MEAN_MOTION_DOT,MEAN_MOTION_DDOT
TERRA,1999-068A,2010-03-12T04:42:40.190400,14.57110481,.0000603,98.2112,147.2239,75.8425,284.2865,0,U,25994,587,54418,.24398E-4,.65E-6,0
TERRA,1999-068A,2010-03-12T09:39:19.307520,14.57110653,.0000587,98.2112,147.4269,78.0550,282.0721,0,U,25994,588,54421,.30482E-4,.92E-6,0
TERRA,1999-068A,2010-03-12T17:53:44.548800,14.57110449,.0000567,98.2112,147.7655,79.3666,280.7588,0,U,25994,589,54426,.15741E-4,.26E-6,0
TERRA,1999-068A,2010-03-12T22:50:23.721216,14.57110386,.0000579,98.2113,147.9686,78.6028,281.5224,0,U,25994,590,54429,.17261E-4,.33E-6,0
TERRA,1999-068A,2010-03-13T03:47:02.899680,14.57110730,.0000551,98.2113,148.1718,79.8343,280.2939,0,U,25994,590,54432,.26604E-4,.75E-6,0
TERRA,1999-068A,2010-03-13T12:01:28.118496,14.57111001,.0000555,98.2115,148.5104,81.7827,278.3439,0,U,25994,591,54437,.35276E-4,.114E-5,0
TERRA,1999-068A,2010-03-13T16:58:07.260672,14.57111032,.000056,98.2115,148.7136,81.4794,278.6467,0,U,25994,592,54440,.33257E-4,.105E-5,0
TERRA,1999-068A,2010-03-13T21:54:46.412352,14.57110719,.0000583,98.2113,148.9167,84.6074,275.5169,0,U,25994,593,54443,.23531E-4,.61E-6,0
TERRA,1999-068A,2010-03-14T02:51:25.604640,14.57111101,.0000577,98.2111,149.1196,84.3707,275.7574,0,U,25994,593,54446,.35504E-4,.115E-5,0
TERRA,1999-068A,2010-03-14T11:05:50.806176,14.57111462,.0000562,98.2111,149.4585,88.0936,272.0334,0,U,25994,594,54451,.42566E-4,.147E-5,0
TERRA,1999-068A,2010-03-14T16:02:29.940576,14.57111480,.0000578,98.2112,149.6616,90.0385,270.0883,0,U,25994,595,54454,.37509E-4,.124E-5,0
TERRA,1999-068A,2010-03-14T20:59:09.082752,14.57111225,.0000606,98.2111,149.8646,92.1235,268.0013,0,U,25994,596,54457,.28679E-4,.84E-6,0
TERRA,1999-068A,2010-03-15T01:55:48.264672,14.57111338,.0000601,98.2110,150.0677,94.1401,265.9870,0,U,25994,596,54460,.31546E-4,.97E-6,0
TERRA,1999-068A,2010-03-15T10:10:13.480032,14.57111608,.0000591,98.2107,150.4065,92.7717,267.3547,0,U,25994,597,54465,.3563E-4,.115E-5,0
TERRA,1999-068A,2010-03-15T18:24:38.720448,14.57111558,.0000591,98.2107,150.7449,91.0360,269.0896,0,U,25994,598,54470,.30442E-4,.92E-6,0
TERRA,1999-068A,2010-03-16T04:17:57.042816,14.57111867,.0000587,98.2104,151.1512,89.8583,270.2700,0,U,25994,599,54476,.37383E-4,.123E-5,0
TERRA,1999-068A,2010-03-16T09:14:36.155616,14.57111946,.0000585,98.2103,151.3543,90.8803,269.2464,0,U,25994,600,54479,.38185E-4,.127E-5,0
TERRA,1999-068A,2010-03-16T19:07:54.421824,14.57112036,.0000614,98.2104,151.7605,94.0852,266.0409,0,U,25994,601,54485,.36834E-4,.121E-5,0
TERRA,1999-068A,2010-03-17T03:22:19.683840,14.57112281,.0000618,98.2107,152.0988,93.6433,266.4852,0,U,25994,602,54490,.42071E-4,.144E-5,0
TERRA,1999-068A,2010-03-17T11:36:44.896608,14.57112125,.0000628,98.2103,152.4374,96.8593,263.2678,0,U,25994,603,54495,.2847E-4,.83E-6,0
TERRA,1999-068A,2010-03-17T16:33:24.032736,14.57112051,.0000628,98.2104,152.6406,96.7744,263.3522,0,U,25994,604,54498,.22621E-4,.57E-6,0
TERRA,1999-068A,2010-03-17T21:30:03.179232,14.57111894,.0000627,98.2103,152.8437,96.7827,263.3428,0,U,25994,605,54501,.20786E-4,.48E-6,0
TERRA,1999-068A,2010-03-18T02:26:42.346464,14.57112153,.0000618,98.2102,153.0467,97.4477,262.6805,0,U,25994,605,54504,.27685E-4,.79E-6,0
TERRA,1999-068A,2010-03-18T07:23:21.462720,14.57112472,.0000606,98.2100,153.2500,97.0275,263.1009,0,U,25994,606,54507,.35563E-4,.115E-5,0
TERRA,1999-068A,2010-03-18T17:16:39.700416,14.57112485,.0000614,98.2099,153.6560,98.6338,261.4928,0,U,25994,608,54513,.29195E-4,.86E-6,0
TERRA,1999-068A,2010-03-18T22:13:18.838272,14.57112515,.000061,98.2099,153.8591,96.8797,263.2459,0,U,25994,609,54516,.35152E-4,.113E-5,0
TERRA,1999-068A,2010-03-19T03:09:57.989952,14.57112558,.0000618,98.2099,154.0621,100.6531,259.4743,0,U,25994,609,54519,.3204E-4,.99E-6,0
TERRA,1999-068A,2010-03-19T11:24:23.194944,14.57112682,.0000634,98.2098,154.4006,103.1151,257.0122,0,U,25994,610,54524,.29984E-4,.9E-6,0
TERRA,1999-068A,2010-03-19T17:59:55.365504,14.57112388,.0000628,98.2098,154.6713,104.3646,255.7612,0,U,25994,611,54528,.14746E-4,.21E-6,0
TERRA,1999-068A,2010-03-19T21:17:41.473248,14.57112317,.0000634,98.2099,154.8066,105.7692,254.3569,0,U,25994,612,54530,.15721E-4,.26E-6,0
TERRA,1999-068A,2010-03-20T03:53:13.667136,14.57112702,.0000603,98.2096,155.0776,103.7890,256.3395,0,U,25994,612,54534,.24891E-4,.67E-6,0
TERRA,1999-068A,2010-03-20T10:28:45.810912,14.57112785,.0000629,98.2096,155.3485,107.0541,253.0733,0,U,25994,613,54538,.25546E-4,.7E-6,0
TERRA,1999-068A,2010-03-20T18:43:11.002944,14.57112846,.0000653,98.2095,155.6868,107.4873,252.6385,0,U,25994,614,54543,.25557E-4,.7E-6,0
TERRA,1999-068A,2010-03-21T04:36:29.280384,14.57113319,.0000644,98.2093,156.0931,106.8271,253.3013,0,U,25994,615,54549,.39739E-4,.134E-5,0
TERRA,1999-068A,2010-03-21T09:33:08.379360,14.57113474,.0000647,98.2092,156.2961,108.7145,251.4129,0,U,25994,616,54552,.43686E-4,.152E-5,0
TERRA,1999-068A,2010-03-21T17:47:33.567072,14.57113312,.0000634,98.2091,156.6345,108.4151,251.7104,0,U,25994,617,54557,.29984E-4,.9E-6,0
TERRA,1999-068A,2010-03-22T05:19:44.893632,14.57113573,.0000637,98.2088,157.1083,109.5903,250.5379,0,U,25994,618,54564,.36752E-4,.12E-5,0
TERRA,1999-068A,2010-03-22T10:16:23.990880,14.57113592,.0000645,98.2087,157.3113,109.5423,250.5844,0,U,25994,619,54567,.35307E-4,.114E-5,0
TERRA,1999-068A,2010-03-22T18:30:49.185504,14.57113684,.0000663,98.2086,157.6496,109.7190,250.4073,0,U,25994,620,54572,.35275E-4,.114E-5,0
TERRA,1999-068A,2010-03-22T23:27:28.317312,14.57113632,.0000674,98.2086,157.8527,111.9483,248.1779,0,U,25994,621,54575,.35143E-4,.113E-5,0
TERRA,1999-068A,2010-03-23T02:45:14.412096,14.57113878,.0000667,98.2086,157.9880,111.7294,248.3987,0,U,25994,621,54577,.4115E-4,.14E-5,0
TERRA,1999-068A,2010-03-23T10:59:39.576480,14.57114026,.0000674,98.2082,158.3267,112.7519,247.3752,0,U,25994,622,54582,.37973E-4,.126E-5,0
TERRA,1999-068A,2010-03-23T17:35:11.729760,14.57114037,.0000671,98.2084,158.5976,112.9453,247.1818,0,U,25994,623,54586,.32294E-4,.1E-5,0
TERRA,1999-068A,2010-03-23T20:52:57.804672,14.57113758,.0000694,98.2084,158.7330,114.2377,245.8877,0,U,25994,624,54588,.23574E-4,.61E-6,0
TERRA,1999-068A,2010-03-24T01:49:36.952032,14.57113982,.0000692,98.2084,158.9360,113.9240,246.2037,0,U,25994,624,54591,.32382E-4,.101E-5,0
TERRA,1999-068A,2010-03-24T10:04:02.115552,14.57114119,.000069,98.2082,159.2745,112.9940,247.1327,0,U,25994,625,54596,.29463E-4,.88E-6,0
TERRA,1999-068A,2010-03-24T19:57:20.339424,14.57113863,.0000704,98.2085,159.6809,112.9657,247.1591,0,U,25994,626,54602,.17705E-4,.35E-6,0
TERRA,1999-068A,2010-03-25T00:53:59.493696,14.57114015,.0000706,98.2083,159.8839,114.1688,245.9586,0,U,25994,627,54605,.24542E-4,.65E-6,0
TERRA,1999-068A,2010-03-25T20:40:35.954400,14.57114332,.000073,98.2082,160.6963,115.3742,244.7550,0,U,25994,627,54617,.27105E-4,.77E-6,0
TERRA,1999-068A,2010-03-25T20:40:35.954400,14.57114332,.000073,98.2082,160.6963,115.3742,244.7550,0,U,25994,628,54617,.27105E-4,.77E-6,0
TERRA,1999-068A,2010-03-26T03:16:08.075712,14.57114488,.000073,98.2081,160.9668,118.4385,241.6897,0,U,25994,628,54621,.29841E-4,.89E-6,0
TERRA,1999-068A,2010-03-26T11:30:33.240960,14.57114503,.0000756,98.2081,161.3052,119.2981,240.8295,0,U,25994,629,54626,.2293E-4,.58E-6,0
TERRA,1999-068A,2010-03-26T19:44:58.422624,14.57114239,.0000755,98.2085,161.6442,118.2495,241.8764,0,U,25994,630,54631,.12401E-4,.11E-6,0
TERRA,1999-068A,2010-03-27T00:41:37.562208,14.57114326,.0000768,98.2087,161.8474,119.2884,240.8394,0,U,25994,631,54634,.17599E-4,.34E-6,0
TERRA,1999-068A,2010-03-27T10:34:55.752384,14.57114726,.0000755,98.2085,162.2535,120.0072,240.1205,0,U,25994,632,54640,.2696E-4,.76E-6,0
TERRA,1999-068A,2010-03-27T18:49:20.912448,14.57114832,.000078,98.2087,162.5922,118.9363,241.1906,0,U,25994,633,54645,.29002E-4,.85E-6,0
TERRA,1999-068A,2010-03-27T22:07:06.996864,14.57114773,.0000773,98.2089,162.7277,117.6942,242.4325,0,U,25994,634,54647,.29584E-4,.88E-6,0
TERRA,1999-068A,2010-03-28T03:03:46.120032,14.57114873,.0000787,98.2089,162.9305,120.7823,239.3463,0,U,25994,634,54650,.29077E-4,.86E-6,0
TERRA,1999-068A,2010-03-28T09:39:18.244800,14.57115040,.0000799,98.2090,163.2014,120.8722,239.2563,0,U,25994,635,54654,.31165E-4,.95E-6,0
TERRA,1999-068A,2010-03-28T17:53:43.394496,14.57114955,.0000811,98.2090,163.5398,121.8721,238.2548,0,U,25994,636,54659,.22605E-4,.57E-6,0
TERRA,1999-068A,2010-03-29T03:47:01.645152,14.57115024,.000081,98.2092,163.9462,121.8880,238.2415,0,U,25994,637,54665,.22236E-4,.55E-6,0
TERRA,1999-068A,2010-03-29T12:01:26.784480,14.57115178,.0000818,98.2092,164.2845,121.0188,239.1091,0,U,25994,638,54670,.2496E-4,.67E-6,0
TERRA,1999-068A,2010-03-29T18:36:58.919616,14.57115038,.0000831,98.2089,164.5550,121.3811,238.7460,0,U,25994,639,54674,.18908E-4,.4E-6,0
TERRA,1999-068A,2010-03-29T21:54:45.004896,14.57115068,.0000832,98.2089,164.6904,120.5477,239.5798,0,U,25994,640,54676,.2306E-4,.59E-6,0
TERRA,1999-068A,2010-03-30T02:51:24.117696,14.57115257,.0000835,98.2090,164.8935,121.5644,238.5648,0,U,25994,640,54679,.27086E-4,.77E-6,0
TERRA,1999-068A,2010-03-30T11:05:49.230240,14.57115716,.0000853,98.2091,165.2322,123.1745,236.9539,0,U,25994,641,54684,.37957E-4,.126E-5,0
TERRA,1999-068A,2010-03-30T19:20:14.379072,14.57115581,.0000881,98.2091,165.5707,123.9511,236.1760,0,U,25994,642,54689,.29257E-4,.87E-6,0
TERRA,1999-068A,2010-03-31T00:16:53.496192,14.57115576,.0000906,98.2090,165.7737,124.5875,235.5405,0,U,25994,643,54692,.29648E-4,.88E-6,0
TERRA,1999-068A,2010-03-31T10:10:11.676000,14.57115799,.0000913,98.2089,166.1798,124.7767,235.3516,0,U,25994,644,54698,.31009E-4,.94E-6,0
TERRA,1999-068A,2010-03-31T18:24:36.830016,14.57115700,.0000937,98.2088,166.5180,124.9772,235.1504,0,U,25994,645,54703,.2394E-4,.63E-6,0
TERRA,1999-068A,2010-04-01T04:17:55.052160,14.57116182,.0000929,98.2082,166.9241,123.9570,236.1741,0,U,25994,646,54709,.38343E-4,.128E-5,0
